lat,long,postcode,name,address
-37.70326,145.094404,3088,ABACUS CHILD CARE CENTRE,"3, William Street, Apollo Parkways, Greensborough"
-37.802389,144.980228,3065,ACACIA FITZROY CRECHE,187 Napier Street
-37.794954,145.150708,3109,ACE CHILD CARE CENTRE,"Renshaw Street, East Doncaster Junction, Doncaster East"
-37.934598,145.149261,3171,ACTIVE LEARNING CHILD CARE CENTRE,"Clive Street, Springvale"
-37.721026,144.883868,3043,AIRPORT DAY NURSERY,"McIntosh Street, Airport West"
-37.728306,144.880287,3043,AIRPORT WEST CHILD CARE CO-OPERATIVE,"Clydesdale Road, Airport West"
-37.19355,145.707799,3714,ALEXANDRA BABY CARE,"Coster Street, Alexandra, Shire of Murrindindi"
-37.846749,144.981264,3004,ALFRED CHILD CARE CENTRE,"Alfred Hospital, Alfred Lane, Prahran"
-37.546281,143.794812,3358,ALFREDTON CHILD CARE CENTRE,"Elaine Avenue, Alfredton, Ballarat"
-37.873035,144.782677,3028,ALTONA MEADOWS CHILD CARE CENTRE,"Queen Street, Altona Meadows"
-37.868108,144.779573,3028,ALTONA MEADOWS OSHC,"Nicholson Street, Altona Meadows"
-37.842652,144.84983,3025,ALTONA NORTH CHILD CARE CENTRE,"Ronald Avenue, Altona North"
-37.878221,145.284515,3156,AMAROO CHILD CARE CENTRE,"59, Dorset Road, Ferntree Gully"
-38.001623,145.304902,3805,ANACONDA CHILD CARE CENTRE,"102, Anaconda Road, Fountain Gate, Narre Warren, Harkaway"
-37.78292,144.827522,3020,ANDERSON ROAD CHILD CARE CENTRE,"145, Anderson Road, Sunshine"
-36.391448,145.359412,3629,ANN STREET CHILD CARE CENTRE,"Ann Street, Mooroopna"
-36.76605,144.284024,3550,ANNIE GALVIN CHILD CARE CENTRE,"Gladstone Street, Quarry Hill, Bendigo"
-38.231048,145.170662,3912,ANNIE SAGE CHILD CARE,"Blacks Camp Road, Somerville"
-37.754894,144.970249,3058,ANTONINE SISTERS CHILD CARE CENTRE,"Barrow Street, Coburg"
-37.754171,144.908587,3040,ANTRIM DAY NURSERY,"Lincoln Road, Essendon"
-37.825083,145.117787,3128,AQUALINK BOX HILL CRECHE,"Surrey Drive, Box Hill"
-37.837541,145.174422,3131,AQUALINK NUNAWADING CRECHE,"Fraser Place, Forest Hill"
-37.774289,145.126265,3107,AQUARENA CHILD CARE,"Williamsons Road, Macedon Square, Doncaster"
-38.373924,142.487696,3280,AQUAZONE CRECHE,"Queens Road, Warrnambool"
-37.276142,142.932061,3377,ARARAT CHILD CARE CENTRE,"McNeill Street, Ararat"
-37.803484,145.050964,3102,ARGYLE ROAD CHILD CARE CENTRE,"Argyle Road, Willsmere, Kew"
-37.85661,145.027787,3143,ARMADALE CRECHE,"1208, High Street, Armadale"
-37.831319,145.293718,3155,ARRABRI PLAYGROUP,"Allambanan Drive, Bayswater North"
-37.661115,144.883972,3049,ATTWOOD CHILD CARE CENTRE AND KINDERGARTEN,"Mickleham Road, Attwood"
-37.821567,145.046376,3122,AUBURN KINDERGARTEN & CHILD CARE CENTRE,"Station Street, Hawthorn East"
-37.757305,145.059862,3084,AUSTIN CHILD CARE CENTRE,"Austin Hospital, Bell - Banksia Link, Heidelberg"
-37.665145,144.436135,3340,BACCHUS MARSH CHILD CARE & KINDERGARTEN CENTRE,"6, Clifton Drive, Bacchus Marsh"
-37.684437,144.432303,3340,BACCHUS MARSH LEISURE CENTRE CRECHE,"Griffith Street, Maddingley, Bacchus Marsh"
-36.368129,145.414667,3629,BALACLAVA ROAD CHILD CARE CENTRE,"2, Verney Road, Shepparton"
-37.54059,143.859973,3358,BALLARAT CHILD CARE CO-OP,"1007, Armstrong Street North, Soldiers Hill, Ballarat"
-37.558283,143.857262,3358,BALLARAT CITY OCCASIONAL CHILD CARE CENTRE,"Market Street, Ballarat Central, Ballarat"
-37.249418,141.841182,3407,BALMORAL CHILD CARE,"Bell Street, Balmoral"
-37.722285,145.070553,3087,BANYULE NETBALL STADIUM CHILD CARE CENTRE,"Somers Avenue, Macleod"
-36.371652,146.695479,3747,BEECHWORTH COMMUNITY CHILD CARE CENTRE,"Kurrajong Way, Beechworth"
-37.686281,144.738243,3037,BELLEVUE PLAZA PLAY AND LEARN CHILD CARE CENTRE,"Wattle Valley Drive, Bellevue Hill, Hillside"
-36.754802,144.281983,3550,BENDIGO CRECHE & DAY NURSERY,"Park Road, Bendigo, City of Greater Bendigo"
-36.765726,144.284252,3550,BENDIGO OCCASIONAL CHILD CARE CENTRE,"Gladstone Street, Quarry Hill, Bendigo"
-37.922534,145.039269,3204,BENTLEIGH FAMILY & CHILD CARE CO-OP,"Brewer Road, Bentleigh"
-38.246797,145.048712,3934,BENTONS SQUARE OCCASIONAL CHILD CARE AND PRESCHOOL,"Bentons Road, Mount Martha, Mornington"
-38.246797,145.048712,3934,BENTONS SQUARE VACATION CARE,"Bentons Road, Mount Martha, Mornington"
-36.131369,144.750656,3564,BERRIMBA CHILD CARE,"Hare Street, Echuca"
-36.345376,146.297559,3677,BILLY LIDS CHILD CARE CENTRE,"Peacock Place, Wangaratta"
-37.756357,144.970737,3058,BINDI CHILD CARE & KINDERGARTEN,"Barrow Street, Moreland Road, Coburg"
-37.862647,145.233067,3152,BIRCHFIELD CRESCENT CHILD CARE CENTRE,"39, Birchfield Crescent, Wantirna"
-38.43131,145.821087,3950,BIRRALEE CHILD CARE CENTRE,"Broughton Place, Korumburra"
-37.860371,145.283752,3155,BORONIA BUSY BODIES CRECHE,"Orchid Avenue, Boronia"
-37.805692,145.13334,3129,BOX HILL EARLY LEARNING CHILD CARE CENTRE & KINDERGARTEN,"Dorking Road, Kerrimuir, Box Hill North"
-37.92074,145.087358,3167,BRIGHT BEGINNINGS CHILD CARE CENTRE,"117-119, Golf Road, Oakleigh South"
-37.929516,144.993598,3187,BRIGHTON BEACH CHILD CARE CENTRE,"New Street, Hampton"
-37.907584,145.076973,3166,BRINE STREET CHILD CARE CENTRE,"Brine Street, Hughesdale"
-37.772248,144.966181,3056,BRUNSWICK CRECHE & DAY NURSERY,"82, Glenlyon Road, Brunswick"
-38.245712,142.919332,3264,BUCKLE MY SHOE,"McKinnon Street, Terang"
-37.759171,145.093991,3105,BULLEEN TEMPLESTOWE BASKETBALL CLUB INC CRECHE,"Almerta Place, Bulleen"
-38.050072,145.12289,3196,BUNNYKINS CHILD CARE CENTRE,"Blantyre Avenue, Chelsea"
-37.876136,145.108365,3148,BURTON STREET (CENTRE 2),"Burton Street, Jordanville, Chadstone"
-37.779329,145.325538,3140,BUSY KIDS CHILD CARE CENTRE,"Croydondale Drive, Rolling Hills, Mooroolbark, Lilydale"
-37.759031,144.788902,3021,CAIRNLEA KINDY AND CHILD CARE CENTRE,"Wattle Grove Road, Cairnlea"
-37.833,145.06373,3124,CAMBERWELL KINDERGARTEN AND CHILD CARE CENTRE,"25, Trafalgar Road, Camberwell"
-37.996689,145.207775,3175,CANBERRA AVENUE CHILD CARE CENTRE,"Canberra Avenue, Dandenong"
-38.123227,145.148738,3198,CANDLEBARK CHILD CARE CENTRE,"Candlebark Crescent, Frankston North, Frankston"
-37.821084,145.070087,3124,CANTERBURY CHILD CARE CENTRE,"Gwenda Avenue, Canterbury"
-38.086383,145.289371,3977,CARLISLE CHILD CARE CLUB,"15, Silky Oak Drive, Cranbourne"
-38.076314,145.13085,3197,CARRUM CHILD CARE CENTRE,"Seaford Wetlands Path, Carrum"
-38.1134,145.297057,3977,CASEY RECREATION AND AQUATIC CENTRE CRECHE,"Cranbourne East, Cranbourne"
-37.06289,144.215617,3450,CASTLEMAINE CHILD CARE CENTRE,"Templeton Street, Castlemaine"
-37.866419,145.050204,3146,CENTRAL PARK CHILD CARE CENTRE,"120, Burke Road, Malvern East"
-38.369167,145.207623,3919,CERBERUS CHILD CARE CENTRE,"Cook Road, HMAS Cerberus, Stony Point"
-37.880888,145.028868,3161,CHABAD GLEN EIRA CRECHE,"Glen Eira Road, Caulfield"
-37.852331,145.029634,3144,CHABAD HOUSE OF MALVERN/TOORAK,"355, Glenferrie Road, Malvern"
-37.87663,145.221414,3152,CHARLIE BROWN CHILD CARE CENTRE,"1305, High Street Road, Wantirna South"
-37.878406,145.00881,3185,CHAYAS CRECHE,"Somerset Street, Elsternwick"
-38.05376,145.121372,3196,CHELSEA CENTRAL CHILD CARE CENTRE,"Woodbine Grove, Chelsea"
-38.030073,145.360758,3805,CHILDRENS DOMAIN CHILD CARE & EARLY LEARNING CENTRE," Howell Drive, Berwick, Harkaway"
-37.832137,145.223818,3135,CHOKLITS CHILD CARE CENTRE,"Canterbury Road, Ringwood"
-38.023785,145.306467,3805,CITY OF CASEY CHILD CARE COMPLEX,"Webb Street, Fountain Gate, Narre Warren, Harkaway"
-38.104598,145.27611,3977,CLARENDON STREET COMMUNITY CHILD CARE CENTRE,"Dunbar Avenue, Cranbourne"
-37.933502,145.13122,3169,CLAYTON SOUTH CHILD CARE CENTRE,"Milton Avenue, Clayton South"
-37.782272,144.990478,3068,CLIFTON CHILD CARE CO-OP,"Rushall Crescent, Fitzroy North"
-37.301959,143.782868,3370,CLUNES NEIGHBOURHOOD HOUSE CRECHE,"Ballarat - Maryborough Road, Clunes"
-37.74028,144.945745,3044,COBURG & PASCOE VALE SOUTH CHILD CARE CENTRE,"211, Melville Road, Pascoe Vale South"
-37.697923,144.565868,3337,COBURNS ROAD CHILD CARE CENTRE,"Coburns Road, Melton South"
-37.913862,145.184818,3150,COLUMBIA PARK CHILD CARE CENTRE,"6, Columbia Drive, Wheelers Hill"
-37.751137,145.365873,3140,COMO PARK CHILD CARE & KINDERGARTEN,"Nelson Road, Lilydale"
-37.811439,145.000263,3121,COOKE COURT CHILD CARE CENTRE,"23, Church Street, Richmond"
-38.131572,145.125284,3198,CORE HEALTH CHILD CARE,"Nepean Highway, Frankston"
-38.078373,144.354718,3214,CORIO BAY SENIOR COLLEGE CHILD CARE CENTRE INC,"Illinois Avenue, Corio, Geelong"
-37.598864,144.934478,3064,CRAIGIEBURN LEISURE CENTRE CRECHE,"Craigieburn Road, Craigieburn"
-38.155709,145.173607,3198,CRICKLEWOOD CHILD CARE CENTRE,"Cranbourne Road, Langwarrin, Frankston"
-37.876077,145.150062,3150,CROXLEY HALL NURSERY & PRESCHOOL,"37-39, Hunter Street, Syndal, Glen Waverley"
-37.756677,145.124776,3106,CUDDLY BEAR CHILD CARE,"Swilk Street, Templestowe"
-37.832632,145.23459,3135,CUDDLY BEAR CHILD CARE HEATHMONT,"Canterbury Road, Heathmont"
-37.967971,145.212342,3175,DANDENONG DAY NURSERY,"Brunet Street, Dandenong North, Dandenong"
-37.912908,145.326859,3160,DANDENONG RANGES CHILD CARE CENTRE,"Riley Road, Upwey, Belgrave"
-37.70534,144.970685,3060,DARUL ULUM COLLEGE CHILD CARE,"Baird Street, Fawkner"
-37.771207,144.957094,3056,DAWSON STREET CHILD CARE CENTRE,"Dawson Street, Brunswick"
-37.34237,144.138009,3370,DAYLESFORD COMMUNITY CHILD CARE,"Western Avenue, Daylesford"
-37.34237,144.138009,3370,DAYLESFORD COMMUNITY CHILD CARE CENTRE,"Western Avenue, Daylesford"
-38.200536,144.30157,3214,DEAKIN CHILD CARE,"Deakin Avenue, Waurn Ponds, Geelong"
-37.760722,145.167267,3109,DEEP CREEK CHILD CARE CENTRE,"Blackburn Road, Deep Creek, Doncaster East"
-37.674691,145.161669,3089,DIAMOND CREEK CHILD CARE CENTRE,"10, Main Hurstbridge Road, Diamond Creek"
-37.781857,145.132242,3107,DONCASTER EARLY LEARNING CHILD CARE,"Turana Street, Doncaster Hill, Doncaster"
-37.681269,145.015682,3074,DOROTHY AVENUE CHILD CARE CENTRE,"Dorothy Avenue, Thomastown"
-37.990818,145.241155,3177,DOVETON UNITING CHURCH CHILD CARE AND KINDERGARTEN,"10-12, Ti Tree Drive, Doveton"
-38.328561,144.974951,3936,DROMANA CHILD CARE,"Nepean Highway, Safety Beach, Arthurs Seat"
-37.801464,145.322406,3765,DURHAM ROAD DAY CHILD CARE CENTRE,"Hansen Road, Kilsyth, Montrose"
-37.679231,144.568704,3337,EARLY LEARNING CHILD CARE CENTRE,"Coburns Road, Melton West"
-37.6820723,144.5848333,3337,EARLY LEARNING KINDERS AND CHILD CARE,"Wallace Square, Melton"
-37.9287303,145.0579974,3189,EAST BENTLEIGH CHILD CARE CENTRE,"East Boundary Road, Bentleigh East"
-38.10598,147.124957,3852,EAST SALE CHILD CARE CENTRE,"Aerodrome Road, East Sale, The Heart"
-37.804667,144.981057,3065,EAST WEST CHILD CARE,"144-156, George Street, Fitzroy"
-38.029653,145.275714,3976,ECO KIDS CHILD CARE CENTRE,"Pound Road, Hampton Park"
-38.039975,145.359502,3805,EDRINGTON PARK CHILD CARE & KINDERGARTEN,"Edrington Park Drive, Berwick, Harkaway"
-37.67297,144.576249,3337,EDUKIDS LEARNING CHILD CARE AND KINDERGARTEN,"Greenhills Drive, Kurunjang"
-37.862785,144.976369,3182,EILDON RD CHILD CARE CENTRE,"Eildon Road, St Kilda"
-38.00175,145.098096,3195,ELITE PETITES,"5, Hall Mark Road, Mordialloc"
-37.882366,145.015469,3185,ELSTERNWICK CHILD CARE CENTRE,"Allison Road, Elsternwick"
-37.716053,145.145632,3095,ELTHAM CHILD CARE CO-OP LTD,"Eltham Library, Library Place, Eltham South, Eltham"
-37.722592,145.141162,3095,ELTHAM LEISURE CENTRE CRECHE,"11, Susan Street, Eltham South, Eltham"
-37.689827,145.142633,3095,ELTHAM NORTH CHILD CARE,"Ryans Road, Eltham North"
-37.707901,145.167332,3095,ELTHAM WOODS CHILD CARE CENTRE CO-OP,"Eltham Woods, Frank Street, Woodridge, Eltham, Kangaroo Ground"
-37.83291,144.961665,3205,EMERALD HILL CHILD CARE CENTRE,"Dorcas Street, South Melbourne"
-37.97843,145.258517,3177,ENDEAVOUR HILLS LEISURE CENTRE (CRECHE),"Raymond McMahon Boulevard, Endeavour Hills"
-37.978798,145.263665,3177,ENDEAVOUR HILLS UNITING CHURCH CHILD CARE CENTRE,"Hellyer Way, Endeavour Hills"
-38.223699,145.183675,3912,ERAMOSA CHILD CARE,"Eramosa Road East, Somerville"
-37.82421,144.956109,3005,EVENT CHILD CARE,"Clarendon Street, South Wharf"
-36.863945,147.282037,3699,FALLS CREEK OCCASIONAL CHILD CARE,"Falls Creek Resort, Slalom Street, Falls Creek"
-37.791194,144.935804,3000,FEDERATION FAMILY DAY CARE,"51, Stubbs Street, Kensington"
-38.172204,144.384573,3214,FIRST STEPS CHILD CARE CENTRE,"Regent Street, Whittington, Geelong"
-37.786316,144.931537,3000,FLEMINGTON CHILD CARE CO-OPERATIVE,"2A, Wellington Street, Kensington"
-37.95909,145.065626,3192,FRIENDSHIP SQUARE CHILD CARE CENTRE,"Friendship Square, Cheltenham"
-37.747308,144.779163,3021,FUTURE KIDS CHILD CARE -CAIRNLEA,"Station Road Service Road, Cairnlea"
-38.109405,145.255314,3977,FUTURE KIDS CHILD CARE -CRANBOURNE CENTRAL,"Navarre Drive, Cranbourne West, Cranbourne"
-38.095382,145.293889,3977,FUTURE KIDS CHILD CARE -CRANBOURNE EAST,"Tilbury Court, Cranbourne East, Cranbourne"
-37.873263,144.613127,3024,FUTURE KIDS CHILD CARE -MANOR LAKES,"Ballan Road, Wyndham Vale"
-38.072736,145.476358,3810,FUTURE KIDS CHILD CARE -PAKENHAM,"Main Street, Pakenham"
-37.900346,144.740279,3030,FUTURE KIDS CHILD CARE -POINT COOK,"Paradise Parade, Alamanda, Point Cook"
-37.8542,144.741647,3027,FUTURE KIDS CHILD CARE CENTRE -WYNDHAM WATERS,"Bronzewing Street, Wyndham Waters, Williams Landing"
-37.822438,144.954337,3005,FUTURE KIDS CHILD CARE-WORLD TRADE CENTRE,"Siddeley Street, Docklands"
-38.197916,144.341623,3214,GEELONG CHILDRENS SERVICES CHILD CARE & EDUCATION CENTRE,"Torquay Road, Grovedale, Geelong"
-38.140157,144.325244,3214,GEELONG KIDS CHILD CARE AND KINDERGARTEN,"335, Autumn Street, Herne Hill, Geelong"
-37.868576,145.261448,3155,GENESIS CRECHE WANTIRNA,"Scoresby Road, Boronia"
-37.701158,144.564177,3337,GENESIS KIDS ZONE,"Brooklyn Road, Brookfield"
-37.882013,145.162828,3150,GLEN WAVERLEY OCCASIONAL CHILD CARE,"Bogong Avenue, Syndal, Glen Waverley"
-37.796912,144.989712,3066,GOLD STREET CHILD CARE CENTRE,"64, Gold Street, Collingwood"
-37.731856,142.031183,3407,GOOD SHEPHERD CHILD CARE CENTRE,"33, McArthur Street, Hamilton, Shire of Southern Grampians"
-37.81103,145.068224,3103,GOODLIFE OPERATIONS CHILD CARE CENTRE -BALWYN,"Whitehorse Road, Deepdene"
-37.732581,144.813033,3021,GRACE STREET CHILD CARE CENTRE,"Grace Street, St Albans"
-38.11756,145.149578,3198,GREEN COTTAGE CHILD CARE,"Madden Street, Frankston North, Frankston"
-37.780763,145.033996,3079,GUM NUT PRESCHOOL & CHILD CARE,"Como Street, Alphington"
-36.548116,145.984997,3672,GUM NUTS RESORT,"Carrier Street, Benalla"
-38.234691,146.395853,3840,GUNAI LIDJ CHILD CARE CENTRE,"24, Buckley Street, Morwell, Latrobe City"
-36.398571,145.39019,3629,GUTHRIE STREET CHILD CARE CENTRE,"Guthrie Street, Shepparton"
-37.937,145.023652,3188,HAMPTON CHILD CARE CENTRE,"Bluff Road, Hampton East"
-37.940577,145.002156,3187,HAMPTON LADIES HEALTH CLUB CHILD CARE CENTRE,"Crisp Street, Hampton"
-37.65698,145.074832,3082,HAPPY FACES CHILD CARE CENTRE,"Centenary Drive, Mill Park"
-37.960758,145.206746,3175,HAPPY KIDS CHILD CARE CENTRE,"158, Gladstone Road, Dandenong North, Dandenong"
-38.100928,145.28093,3977,HAPPY LITTLE LEARNERS CHILD CARE CENTRE,"Station Street, Cranbourne"
-37.847784,145.082886,3124,HARTWELL CHILD CARE ASSOC,"Milverton Street, Camberwell"
-38.30844,145.192267,3915,HASTINGS CHILD CARE CENTRE,"King Street, Hastings"
-37.821337,145.042426,3122,HAWTHORN COMMUNITY HOUSE CHILD CARE SERVICE,"Henry Street, Hawthorn"
-37.836245,145.241754,3135,HEATHMONT CHILD CARE CENTRE,"Eden Avenue, Heathmont"
-37.828274,145.256566,3135,HEATHMONT EAST CHILD CARE CENTRE,"Armstrong Road, Heathmont"
-37.747772,145.056914,3081,HEIDELBERG OCCASIONAL CHILD CARE CENTRE,"Altona Street, Heidelberg Heights"
-37.797311,145.289992,3136,HEWISH ROAD CHILD CARE CENTRE,"Hewish Road, Croydon"
-37.961278,145.137821,3172,HIGH FLYERS CHILD CARE CENTRE,"Clarke Road, Springvale South"
-38.188658,144.326999,3214,HIGHTON CHILD CARE & DEVELOPMENT CENTRE PTY LTD,"Reynolds Road, Belmont, Geelong"
-37.739729,144.892153,3040,HONEYBEE CHILD CARE CENTRE,"Hoffmans Road, Niddrie"
-35.730103,142.363095,3396,HOPETOUN CHILD CARE SERVICE,"Mandeville Street, Hopetoun"
-37.878008,144.691034,3030,HOPPERS CROSSING OCCASIONAL CHILD CARE CENTRE,"Heaths Road, Hoppers Crossing, Werribee"
-36.714478,142.20362,3400,HORSHAM COMMUNITY CHILD CARE CENTRE,"Roberts Avenue, Horsham"
-36.715252,142.202928,3400,HORSHAM UNITING CHURCH CRECHE,"Pynsent Street, Horsham"
-37.771179,144.77892,3023,HUNT CLUB COMMUNITY ARTS CENTRE -OCCASIONAL CHILD CARE,"Hume Street, Deer Park"
-37.895937,144.999434,3185,HUNT COMMUNITY CHILD CARE CENTRE,"Cochrane Street, Brighton"
-37.896131,144.622784,3030,IRAMOO COMMUNITY CENTRE OCCASIONAL CHILD CARE,"Honour Avenue, Windermere, Wyndham Vale, Werribee"
-37.685257,144.934621,3047,ISIK COLLEGE CHILD CARE CENTRE AND KINDERGARTEN,"ISIK College, Cuthbert Street, Broadmeadows"
-37.762214,145.042884,3079,IVANHOE AQUATIC CENTRE CHILD CARE,"Bond Street, Ivanhoe"
-37.970311,145.202643,3175,JELLY BEAN CHILD CARE CENTRE,"Florence Court, Dandenong"
-37.77574,144.8317,3020,JIGSAW CHILD CARE,"Phoenix Street, Sunshine North"
-37.880432,145.271573,3156,JOHNSON AND FRIENDS CHILD CARE CENTRE,"Burwood Highway, Ferntree Gully"
-37.894681,145.151899,3150,JOLLY JUMBUCKS CHILD CARE,"28-30, Chivers Avenue, Glen Waverley"
-37.93189,145.438481,3782,JOLLY JUMBUCKS CHILD CARE EMERALD,"267 - 271, Belgrave - Gembrook Road, Emerald"
-37.695114,144.959366,3060,JOYBELLE CHILD CARE CENTRE,"Sydney Road, Fawkner"
-38.150246,145.141631,3198,JUBILEE PARK NURSERY SCHOOL,"Reservoir Road, Frankston"
-37.878501,145.00966,3161,JUDY KLEINS CRECHE,"Glen Eira Road, Caulfield"
-37.960293,145.055449,3192,JUGGLES OCCASIONAL CHILD CARE CENTRE,"12, Jamieson Street, Cheltenham"
-37.719472,145.221244,3095,JUNIORS FARM CHILD CARE CENTRE,"Floods Road, North Warrandyte, Kangaroo Ground"
-36.1198,146.855484,3690,K 4 KIDZ CHILD CARE,"Lawrence Street, West Wodonga, Wodonga"
-37.919739,145.126017,3800,KANOOKA CHILD CARE CENTRE,"29-31 Kanooka Grove, Clayton"
-37.777398,145.250983,3134,KARDINIA CHILD CARE CENTRE,"Kardinia Crescent, Warranwood"
-37.725681,144.804286,3038,KEILOR DOWNS CHILD CARE CENTRE,"39, Thornhill Drive, Keilor Downs"
-37.715494,144.822966,3036,KEILOR GATEHOUSE,"Parramatta Road, Keilor"
-37.907272,145.264382,3156,KELLBOURNE HEIGHTS KINDERGARTEN & CHILD CARE CENTRE,"Murrindal Drive, Rowville"
-37.795513,144.930293,3000,KENSINGTON TURKISH CHILD CARE CENTRE,"Wolseley Parade, Kensington"
-37.793244,144.927925,3000,KENSINGTON WOMENS GROUP CHILD CARE ASSOCIATION INC,"McCracken Street, Kensington"
-37.803174,145.038369,3102,KEW RECREATION CHILD CARE CENTRE,"Derby Place, Willsmere, Kew"
-37.881724,145.178022,3150,KIDS ON GALLAGHERS CHILD CARE CENTRE,"254, Gallaghers Road, Glen Waverley"
-37.797209,144.81922,3020,KILLEEN STREET CHILD CARE CENTRE,"Killeen Street, Sunshine West"
-37.299748,144.953248,3764,KILMORE CHILD CARE CENTRE,"White Street, Kilmore"
-37.298421,144.953704,3764,KILMORE LEISURE CENTRE CRECHE,"White Street, Kilmore"
-37.964577,145.034947,3193,KING CLUB CRECHE,"Tulip Street, Black Rock"
-38.057571,145.314577,3806,KINGS CHILD CARE CENTRE,"The Avenue, Narre Warren South"
-37.995131,145.092507,3195,KINGSTON KIDS PRESCHOOL & CHILD CARE CENTRE,"62, Warren Road, Mordialloc"
-37.814469,145.248473,3135,KNAITH ROAD CHILD CARE CENTRE,"Knaith Road, Ringwood East"
-36.375436,145.410079,3629,KNIGHT STREET PRESCHOOL & CHILD CARE CENTRE,"Knight Street, Shepparton"
-37.727316,144.895366,3041,KOALA CHILD CARE & EARLY LEARNING CENTRE -ESSENDON FIELDS,"Bristol Street, Essendon Fields"
-37.836056,145.230099,3135,KOALA CHILD CARE & EARLY LEARNING CENTRE -HEATHMONT,"Marlborough Road, Heathmont"
-37.718615,144.993069,3073,KOALA CHILD CARE & EARLY LEARNING CENTRE -RESERVOIR,"Henty Street, Reservoir"
-37.838802,145.032246,3121,KOOYONG LAWN TENNIS CLUB CHILD CARE CENTRE,"Gardiners Creek Trail, Burnley"
-37.71249,144.792953,3038,LADY NELSON EARLY LEARNING AND CHILD CARE CENTRE,"Lady Nelson Way, Keilor Downs"
-37.868772,148.006403,3909,LAKES AQUADOME CRECHE,"Palmers Road, Lakes Entrance, Cunninghame"
-37.872979,148.002949,3909,LAKES ENTRANCE CHILD CARE CENTRE,"Lakes Entrance, Shire of East Gippsland"
-37.878368,145.253388,3180,LAKEWOOD CHILD CARE & KINDERGARTEN,"Peppermint Grove, Knoxfield"
-38.164413,145.155366,3198,LAKEWOOD CHILD CARE CENTRE,"Grocery Outlet, Raphael Crescent, Frankston"
-37.667224,145.015966,3075,LALOR CHILD CARE CENTRE,"Duncan Road, Lalor"
-37.849198,145.010358,3004,LANCASTER & FRANK HARTLEY HOUSE CHILD CARE CENTRE,"Malvern Road, Prahran"
-37.579222,145.137326,3755,LAURIMAR CHILD CARE AND EARLY LEARNING,"Flaxen Hills Road, Laurimar, Doreen, Yan Yean"
-38.188317,144.324739,3214,LEISURE LINK CHILD CARE CENTRE,"Geelong Bowling Lanes, Reynolds Road, Belmont, Geelong"
-36.403733,145.352639,3629,LIDJE MACS CHILD CARE CENTRE,"Rumbalara Road, Mooroopna"
-37.921819,145.173472,3170,LITTLE ANGELS CHILD CARE CENTRE,"Anora Crescent, Mulgrave"
-37.896968,144.63998,3030,LITTLE BLOSSOMS CHILD CARE CENTRE,"Ballan Road Service Road, Werribee"
-37.870515,144.76148,3028,LITTLE BLOSSOMS CHILD CARE CENTRE -ALTONA MEADOWS,"1, Fitzpatrick Drive, Altona Meadows"
-37.896715,145.101806,3166,LITTLE FOLKS CHILD CARE CENTRE,"Ferntree Gully Road, Oakleigh East"
-37.816837,145.205531,3132,LITTLE LEAGUE PROFESSIONAL CHILD CARE,"670, Maroondah Highway, Mitcham"
-37.693439,144.743281,3037,LITTLE MUNCHKINS CHILD CARE CENTRE,"CFA, Gourlay Road, Hillside"
-37.878202,145.065197,3146,LITTLE PADDINGTON CHILD CARE CENTRE AND KINDERGARTEN,"Waverley Road, Malvern East"
-37.814036,145.17637,3130,LITTLE RASKALS KINDERGARTEN & CHILD CARE CENTRE,"Esdale Street, Nunawading"
-38.034801,145.343834,3805,LITTLEONES CHILD CARE CENTRE,"Gibb Street, Berwick, Harkaway"
-38.034043,145.107337,3196,LOCHIEL AVENUE CHILD CARE CENTRE,"6, Lochiel Avenue, Edithvale"
-37.832164,145.270439,3155,LOTS OF CUDDLES CHILD CARE AND KINDERGARTEN,"Canterbury Road, Bayswater North"
-38.371411,144.857007,3940,LYNDEL CHILD CARE CENTRE,"Darvall Street, Tootgarook"
-37.42597,144.569473,3440,MACEDON CHILD CARE CENTRE,"Scott Street, Macedon"
-37.724417,145.068185,3087,MACLEOD YMCA CHILDRENS CRECHE,"157, Wungan Street, Macleod"
-37.87,145.262665,3156,MAGIC GARDEN CHILD CARE CENTRE,"Linda Crescent, Ferntree Gully"
-37.815437,145.044617,3122,MALIN FRIENDS NURSERY AND KINDERGARTEN,"Barkers Road, Hawthorn"
-35.262234,141.180111,3512,MALLEE MINORS CHILD CARE CENTRE -MURRAYVILLE,"Gray Street, Murrayville"
-35.070949,142.327726,3512,MALLEE MINORS CHILD CARE CENTRE -OUYEN,"Mallee Highway, Ouyen"
-35.503691,142.853191,3533,MALLEE MINORS CHILD CARE CENTRE SEA LAKE,"Mudge Street, Sea Lake, Shire of Buloke"
-37.863357,145.04002,3144,MALVERN DAY NURSERY,"Tooronga Road, Malvern"
-37.861406,145.027307,3143,MALVERN EARLY LEARNING AND CHILD CARE CENTRE,"24, Llaneast Street, Armadale"
-37.776675,144.885684,3032,MARIBYRNONG AQUATIC CENTRE OCCASIONAL CHILD CARE,"Aquatic Drive, Maribyrnong"
-37.98173,145.216357,3175,MARKET STREET OCCASIONAL CHILD CARE CENTRE,"Market Street, Dandenong"
-37.73732,144.932633,3044,MARY POPPINS CHILD CARE CENTRE,"Bell Street, Pascoe Vale South"
-37.881308,145.07854,3146,MAY ARMSTRONG CHILD CARE CENTRE,"Armstrong Court, Holmesglen, Malvern East"
-37.808948,144.960154,3000,MELBOURNE CITY CHILD CARE,"428, Elizabeth Street, Melbourne City"
-38.002216,145.264048,3803,MELS ANGELS,"Cornwall Street, Hallam"
-37.98252,145.08325,3194,MENTONE PARK CHILD CARE AND PRESCHOOL,"Acacia Avenue, Mentone"
-37.761173,144.99248,3071,MERRI COMMUNITY CHILD CARE CENTRE,"Bradley Avenue, Thornbury"
-37.074669,144.204487,3450,MERRIFIELD CHILD CARE AND EARLY LEARNING CENTRE,"104, Johnstone Street, Campbells Creek"
-37.712069,145.135569,3095,MERUKA CHILD CARE CENTRE,"Gleneagle Way, Eltham"
-38.230952,146.431859,3840,MID VALLEY KINDER AND CHILD CARE,"Bridle Road, Morwell, Traralgon,"
-34.186911,142.155838,3512,MILDURA CENTRAL CHILD CARE CENTRE,"Lime Avenue, Mildura"
-37.6582545,145.0552964,3082,MILL PARK HEIGHTS CHILD CARE CENTRE,"Morang Drive, Mill Park"
-38.34193,143.580708,3250,MILLVILLE,"Hart Street, Colac"
-37.97893,145.034445,3193,MINNOWS BEAUMARIS,"126, Reserve Road, Beaumaris"
-37.93605,145.060713,3189,MINNOWS BENTLEIGH EAST,"287, South Road, Bentleigh East"
-37.965809,145.060509,3192,MINNOWS CHELTENHAM,"Centre Dandenong Road, Cheltenham"
-37.717975,142.838707,3351,MOBILE CHILD CARE -LAKE BOLAC KINDERGARTEN,"Lake Bolac Complex Road, Lake Bolac"
-38.172703,146.259238,3840,MOE CENTRAL CHILD CARE CENTRE,"Bell Street, Moe, Latrobe City"
-37.875006,145.220163,3152,MONA CHILD CARE,"17, Jenola Parade, Wantirna South"
-37.888269,145.156413,3150,MONASH AQUATIC AND RECREATION CENTRE CRECHE,"Scotchmans Creek Trail, Syndal, Glen Waverley"
-37.87602,145.042107,3145,MONASH CAULFIELD CHILD CARE,"8, Derby Road, Caulfield East"
-37.875965,145.409594,3795,MONBULK NEIGHBOURHOOD PLAYGROUP,"Moores Road, Monbulk, Silvan"
-36.11321,146.861131,3690,MOOREFIELD PARK CHILD CARE CENTRE,"Moorefield Park Drive, West Wodonga, Wodonga"
-37.759639,144.971862,3056,MORELAND COMMUNITY CHILD CARE CO-OP  MITCHELL ST CAMPUS,"Latrobe Street, Brunswick"
-37.759166,144.958549,3056,MORELAND COMMUNITY CHILD CARE CO-OP  TINNING ST CAMPUS,"259, Albion Street, Brunswick"
-37.754347,144.941328,3055,MORELAND COMMUNITY CHILD CARE CO-OP DUNSTAN RES. CAMPUS,"Everett Street, Brunswick West"
-37.77553,145.093907,3105,MORESBY AVENUE CHILD CARE CENTRE,"Moresby Avenue, Bulleen"
-37.88327,145.293219,3156,MOUNTAIN DISTRICT WOMENS CHILD CARE CENTRE,"The Avenue, Ferntree Gully"
-37.993854,145.085278,3195,MOUNTVIEW CHILD CARE CENTRE,"Mount View Avenue, Parkdale"
-36.577924,146.378331,3677,MOYHU OCCASIONAL CHILD CARE CENTRE,"Byrne Street, Moyhu"
-38.186311,145.096021,3930,MT ELIZA HOUSE CHILD CARE & EARLY LEARNING CENTRE,"Baden Powell Place, Mt Eliza"
-37.686397,144.922059,3047,MURDELL HOUSE OCCASIONAL CHILD CARE CENTRE,"Ortolan Avenue, Broadmeadows"
-36.378585,145.403163,3629,NANCY VIBERT OCCASIONAL CHILD CARE CENTRE,"Edward Street, Shepparton"
-37.742897,144.995017,3072,NARA COMMUNITY CHILD CARE CENTRE,"77-91, St Georges Road, Preston"
-38.186,146.281835,3840,NARRACAN DRIVE CHILD CARE CENTRE,"Narracan Drive, Newborough, Latrobe City"
-37.745046,144.965067,3058,NEW FUTURES OCCASIONAL CHILD CARE CENTRE,"353, Sydney Road, Coburg"
-36.33515,141.648615,3418,NHILL CHILD CARE SERVICE,"Victoria Street, Nhill"
-37.917406,145.138567,3800,NOLA-DEE CHILD CARE CENTRE,"34, Morton Street, Clayton"
-37.770526,145.140622,3106,NONIS NURSERY,"Hillcroft Drive, Templestowe"
-37.820334,144.89236,3013,NORFOLK STREET CHILD CARE CENTRE,"2, Norfolk Street, Yarraville"
-37.79461,145.082428,3104,NORTH BALWYN PLAY CENTRE INC TRINITY CHURCH,"Doncaster Road, Greythorn, Balwyn North"
-37.777809,144.985081,3068,NORTH CHILD CARE CO-OP,"171, Clauscen Street, Fitzroy North"
-36.363287,145.393837,3629,NORTH SHEPPARTON OCCASIONAL CHILD CARE,"Packham Street, Shepparton"
-36.348417,145.401623,3629,NORTHSIDE HEALTH & FITNESS CRECHE,"Numurkah Road Service Road, Shepparton"
-38.374164,145.125418,3927,OCCASIONAL CHILD CARE CENTRE BALNARRING,"Frankston-Flinders Road, Balnarring"
-37.674096,145.155566,3089,OCCASIONAL CHILD CARE CENTRE DIAMOND CREEK,"Reserve Circuit, Diamond Creek"
-37.687159,144.577554,3337,OPEN LEARNING CHILD CARE & KINDERGARTEN,"Station Road, Melton"
-37.768168,144.76505,3023,ORAMA STREET CHILD CARE CENTRE,"Orama Street, Deer Park"
-37.755413,145.313302,3140,PADDINGTONS KINDER & CHILD CARE,"El Centro, Chirnside Park, Lilydale"
-37.642569,145.240616,3759,PANTON HILL COMMUNITY CHILD CARE CENTRE,"Bishops Road, Panton Hill"
-37.777185,144.954624,3055,PARK STREET CHILD CARE CO-OP,"783, Park Street, Parkville"
-37.909976,147.72225,3909,PAYNESVILLE CHILD CARE CENTRE,"Schooner Terrace, Paynesville"
-37.709539,144.927129,3046,PEARL STREET CHILD CARE CENTRE,"Pearl Street, Glenroy"
-36.1951243,147.90382,3707,PEEK A BOO CHILD CARE CENTRE,"17, Jardine Street, Corryong"
-36.1951567,147.8999964,3707,PEEKABOO CHILD CARE CENTRE,"Bramley Street, Corryong"
-36.194879,147.899691,3707,PEEKABOO CHILD CARE CENTRE,"Bramley Street, Corryong"
-37.800877,145.030191,3102,PEPPERCORN CHILD CARE,"Princess Street, Willsmere, Kew"
-37.772148,145.024278,3078,PERRY STREET CHILD CARE CENTRE,"Separation Street, Fairfield"
-34.188597,142.164327,3512,PLAYALONG OCCASIONAL CHILD CARE CENTRE,"Lemon Avenue, Mildura"
-37.891628,144.729288,3030,POINT COOK PLAY AND LEARN PRIVATE CHILD CARE CENTRE,"Innisfail Drive, Innisfail, Point Cook"
-38.313253,146.422094,3842,POOH CORNER CHILD CARE CENTRE,"Philip Parade, Churchill"
-38.383879,142.231362,3284,PORT FAIRY CHILD CARE CENTRE,"William Street, Port Fairy, Shire of Moyne"
-38.382941,142.238235,3284,PORT FAIRY COMMUNITY GROUP OCCASIONAL CHILD CARE SERVICE,"Railway Place, Port Fairy, Shire of Moyne"
-37.849219,144.995042,3004,PRINCES CLOSE DAY NURSERY,"Princes Close, Town Hall Car Park Prahan, Prahran"
-37.704787,144.768603,3037,QUALITY TIME CHILD CARE,"Pecks Road, Overton Lea, Sydenham"
-37.876764,144.657764,3030,QUANTIN BINNAH CHILD CARE CENTRE,"Heaths Road, Werribee Waters, Werribee"
-37.731912,145.078788,3087,RAINBOW CHILD CARE CENTRE,"Moorwatha Street, Macleod"
-37.976951,145.166299,3175,RASCALS CHILD CARE CENTRE,"Horatio Street, Noble Park, Dandenong"
-37.860914,145.238303,3152,REGENCY PARK CHILD CARE CENTRE,"Alderford Drive, Wantirna"
-37.820221,144.999671,3121,RICHMOND CRECHE AND KINDERGARTEN INC,"265, Church Street, Richmond"
-37.804816,145.253596,3135,RINGWOOD EAST CHILD CARE CENTRE,"Old Lilydale Road, Ringwood East"
-36.127191,146.909561,3690,RIVERVIEW CHILD CARE CENTRE,"De Kerilleau Drive, Wodonga"
-37.747961,144.959424,3058,ROBINSON RESERVE OCCASIONAL CHILD CARE,"104A, Reynard Street, Coburg"
-34.580497,142.782188,3549,ROBINVALE ABORIGINAL CHILD CARE,"McLennan Drive, Robinvale, Rural City of Swan Hill"
-36.362731,144.700775,3564,ROCHESTER & DISTRICT CHILD CARE CENTRE,"Mackay Street, Rochester,"
-37.688921,144.884705,3043,ROLY POLY EDUCATIONAL CHILD CARE (GLADSTONE PARK),"North Circular Road, Gladstone Park"
-37.695349,144.767851,3037,ROLY POLY EDUCATIONAL CHILD CARE (SYDENHAM)," Melton Highway, Sydenham"
-37.743845,145.066977,3084,ROSANNA VILLAGE CHILD CARE CENTRE,"Turnham Avenue, Rosanna"
-37.77873,144.875674,3019,ROSE GARDEN CHILD CARE MAIDSTONE,"Hampstead Road, Maidstone"
-37.943756,145.210517,3175,ROSEWOOD DOWNS CHILD CARE CENTRE,"Murray Road, Dandenong North, Dandenong"
-37.631022,144.931217,3048,ROXBURGH PARK YOUTH & RECREATION CENTRE CRECHE,"Thomas Brunton Parade, Roxburgh Park"
-37.79503,144.949926,3055,ROYAL CHILDRENS HOSPITAL STAFF CRECHE,"South Building, Main Street, Parkville"
-37.798951,144.954761,3055,ROYAL WOMENS HOSPITAL CHILD CARE CENTRE,"Flemington Road, Parkville"
-37.804097,144.989341,3066,RUPERT STREET CHILD CARE & KINDERGARTEN -BUC,"115-117, Rupert Street, Collingwood"
-36.588013,145.015366,3564,RUSHWORTH KINDERGARTEN & CHILD CARE,"High Street, Rushworth, Shire of Campaspe"
-37.795367,144.900145,3011,SALTWATER CHILD CARE CENTRE,"14, Nicholson Street, Footscray"
-37.835782,145.057477,3124,SAMANTHAS CHILD CARE CENTRE,"Seymour Grove, Camberwell"
-37.950261,145.005731,3191,SANDRINGHAM CHILD CARE CENTRE,"Sandringham Road, Sandringham"
-37.877989,145.011259,3185,SHELFORD CHILD CARE & EARLY LEARNING CENTRE,Elsternwick
-38.389839,142.541887,3280,SHERWOOD PARK CHILD CARE CENTRE,"Deakin University (Warrnambool Campus), Science Lane, Warrnambool, City of Warrnambool"
-37.92728,145.107304,3167,SHINE CHILD CARE,"Centre Road, Oakleigh South"
-37.78477,144.906861,3032,SHOWGROUNDS CHILD CARE,"Leonard Crescent, Ascot Vale"
-36.620003,142.469664,3396,SLAAM OCCASIONAL CHILD CARE CENTRE,"Marma Street, Murtoa, Shire of Yarriambiack"
-37.965719,145.169026,3175,SMALL ONES LIVE & LEARN CHILD CARE CENTRE,"Joy Parade, Noble Park, Dandenong"
-38.1144,145.194335,3201,SNUGGLES CHILD CARE AND EARLY LEARNING CENTRE,"McCormicks Road, Carrum Downs"
-37.892638,145.020708,3162,SOUTH CAULFIELD CHILD CARE CENTRE,"6, Ellington Street, Caulfield South"
-37.844891,144.957274,3206,SOUTH MELBOURNE CHILD CARE,"Carter Street, Albert Park"
-37.744862,144.806574,3021,ST ALBANS MAIN ROAD EAST CHILD CARE CENTRE,"Main Road East, St Albans"
-37.742581,144.792363,3021,ST ALBANS SWEET SOUNDS CHILD CARE CENTRE,"Elizabeth Street, St Albans"
-38.400867,146.155198,3950,ST ANDREWS CHILD CARE CENTRE,"Ridgway, Mirboo North"
-37.923778,145.124467,3800,ST DOMINIC SAVIO CHILD CARE CENTRE,"Donald Street, Clayton"
-37.712747,145.124105,3094,ST FAITHS CHILD CARE AND EARLY LEARNING CENTRE,"8, Price Avenue, Montmorency"
-37.866788,144.998351,3183,ST KILDA EAST CHILD CARE CENTRE,"Balston Street, Balaclava"
-37.985242,145.068924,3194,STAWELL STREET CHILD CARE CENTRE,"4, Stawell Street, Mentone"
-38.253557,144.55189,3214,STEPPING STONES - OCEAN GROVE,"7-79, Tareeda Way, Collendina, Ocean Grove, Marcus Hill"
-36.7621167,144.3142917,3550,STRATHDALE CHILD CARE CENTRE,"Crook Street, Strathdale, Bendigo"
-37.734089,144.919553,3041,STRATHMORE CHILD CARE CENTRE,"Loeman Street, Strathmore"
-37.57588,144.724873,3429,SUNBURY AQUATIC CHILD CARE CENTRE,"Ligar Street, Sunbury"
-37.831788,145.112152,3128,SURREY HILLS BAPTIST CHURCH CHILD CARE CENTRE,"267, Elgar Road, Box Hill South"
-37.825849,145.100423,3127,SURREY HILLS CHILD CARE CENTRE,"Sydenham Lane, Surrey Hills"
-37.851481,145.026578,3143,SUTHERLAND HOUSE,"38, Huntingtower Road, Armadale"
-35.34104,143.548513,3549,SWAN HILL COMMUNITY HOUSE OCCASIONAL CHILD CARE,"McCallum Street, Swan Hill"
-37.820273,145.037885,3122,SWINBURNE COMMUNITY CHILD CARE,"Park Street, Hawthorn"
-37.870218,145.143564,3149,SYNDAL CHILD CARE & EARLY LEARNING CENTRE,"6, Huxtable Street, Mount Waverley"
-37.898054,145.315413,3785,TALASKIA COMMUNITY CHILD CARE,"Edward Street, Upper Ferntree Gully"
-36.115673,146.893731,3690,TANGAMBALANGA CHILD CARE CENTRE,"Huon Street, Wodonga"
-38.369771,142.465309,3280,THE MATRON SWINTON CHILD CARE CENTRE,"Lipook Court, Warrnambool"
-37.804237,145.096419,3103,THE MINIFIE PARK CHILD CARE CENTRE,"290, Belmore Road, Balwyn"
-37.681746,144.998615,3074,THOMASTOWN CHILD CARE CENTRE,"Edgars Road, Thomastown"
-37.725681,144.804286,3038,THORNHILL DRIVE KINDERGARTEN AND CHILDRENS CENTRE,"39, Thornhill Drive, Keilor Downs"
-37.83638,145.09349,3127,THROUGH ROAD CHILD CARE CENTRE,"Webster Street, Burwood"
-37.845632,145.05573,3124,TIGGERS,"895 - 897, Toorak Road, Camberwell"
-37.920932,145.025899,3204,"TIME OUT"" CHILD CARE BENTLEIGH""","20 - 24, Brewer Road, Bentleigh"
-37.751834,145.176063,3109,"TIME-OUT"" CHILD CARE -DONCASTER EAST""","Deep Creek Drive, Deep Creek, Doncaster East"
-37.796084,144.974,3054,TOMMASO FIASCHI CHILD CARE CENTRE,"Station Street, Carlton"
-37.880875,145.01577,3161,TREE HOUSE CHILD CARE,"Kooyong Road, Caulfield North"
-37.870284,144.987998,3182,TREE HOUSE CHILD CARE,"27, Brighton Road, St Kilda"
-38.132236,144.345413,3214,TREE HOUSE CHILD CARE,"3-63, Church Street, Geelong West, Geelong"
-37.772576,144.922475,3032,TREE HOUSE CHILD CARE (ASCOT VALE),"Maribyrnong Road, Ascot Vale"
-37.780414,145.146906,3109,TRY DONCASTER ACTIVITIES CENTRE,"George Street, East Doncaster Junction, Doncaster East"
-37.845031,144.99559,3165,TRY YOUTH SOUTH YARRA,"Simmons Street, South Yarra"
-37.49497,144.602593,3440,TWIN OAKS CHILD CARE,"Sheedy Road, Gisborne"
-38.259796,145.188777,3912,TYABB CHILD CARE CENTRE,"Dennis Street, Tyabb, Somerville"
-37.872396,145.237745,3152,TYNER ROAD OCCASIONAL CHILD CARE CENTRE,"27, Tyner Road, Wantirna South"
-37.652778,145.030508,3075,UNAS CHILD CARE CENTRE,"Cnr Cooper St, Epping"
-37.78191,144.935614,3000,UNCLE BOBS CDC,"Flemington Street, Travancore"
-36.276461,145.21872,3629,UNDERA FUN GROUP,"Anderson Street, Undera"
-37.8951389,145.0779167,3166,VICTORIAN SCHOOLS NURSERY,"Djerring Trail, Hughesdale"
-37.730137,145.101908,3085,VIEWBANK CHILD CARE CENTRE,"Jedem Close, Viewbank"
-37.910672,145.061366,3189,VIRGINIA PARK CHILD CARE CENTRE,"236, East Boundary Road, Bentleigh East"
-37.422675,144.977696,3764,WALLAN CHILD CARE & KINDERGARTEN,"Stevenson Street, Wallara Waters, Wallan"
-36.360537,146.311844,3677,WANGARATTA CHILD CARE CENTRE,"Handley Street, Wangaratta"
-36.257989,142.391847,3396,WARRACKNABEAL CHILD CARE CENTRE,"Werrigar Street, Warracknabeal, Shire of Yarriambiack"
-36.251404,142.39476,3396,WARRACKNABEAL NEIGHBOURHOOD HOUSE CHILD CARE CENTRE,"Scott Street, Warracknabeal, Shire of Yarriambiack"
-38.159013,145.92975,3820,WARRAGUL CHILD CARE CENTRE,"Albert Street, Warragul, Shire of Baw Baw"
-37.742347,145.230718,3134,WARRANDYTE CHILD CARE & PRESCHOOL CENTRE CO-OP LTD,"Masonic Avenue, Warrandyte Bridge, Warrandyte, Warrandyte South"
-37.740361,145.048618,3081,WATERDALE CHILD CARE,"Waterdale Road, Heidelberg West"
-37.71328,145.086794,3087,WATSONIA OCCASIONAL CHILD CARE,"Frensham Road, Watsonia"
-37.950959,145.058175,3192,WAVES LEISURE CENTRE CHILD CARE CENTRE,"148, Chesterville Road, Moorabbin East, Moorabbin"
-37.95891,145.377355,3159,WELLINGTON ROAD PLAYSKOOL CHILD CARE CENTRE,"Wellington Road, Narre Warren East"
-38.288829,145.189758,3915,WESTERNPORT CHILD CARE CENTRE,"Marine Parade, Hastings"
-38.198632,145.492996,3981,WESTERNPORT CHILD CARE CENTRE AND KINDERGARTEN KOO WEE RUP,"Koo Wee Rup - Longwarry Road, Koo Wee Rup"
-37.673096,144.907711,3047,WESTMEADOWS HEIGHTS OCCASIONAL CHILD CARE,"Village Crescent, Westmeadows"
-36.764159,146.41493,3677,WHITFIELD COMMUNITY CHILD CARE CENTRE,"Wangaratta - Whitfield Road, Whitfield, Rural City of Wangaratta"
-37.865291,144.903822,3016,WILLIAMSTOWN CHILD CARE CENTRE CO-OPERATIVE,"Cecil Street, Williamstown"
-37.79499,144.956041,3055,WIMBLE STREET CHILD CARE CO-OP,"Butler Lane, Parkville"
-37.737583,144.992891,3072,WONDER WORLD PLAY CENTRE,"Ford Street, Preston"
-37.739406,145.268563,3115,WONGA PARK COMMUNITY COTTAGE CHILD CARE CENTRE,"7, Old Yarra Road, Wonga Park"
-37.351089,144.536702,3440,WOODEND CARE FOR KIDS,"East Street, Woodend"
-37.354436,144.527741,3440,WOODEND COMMUNITY HUB -CHILD CARE,"Woodend, Forest Street:Tylden - Woodend Road, Woodend, Shire of Macedon Ranges"
-38.2612512,144.5260353,3214,WOODLANDS HOUSE CHILD CARE,"Wyatt Street, Collendina, Ocean Grove, City of Greater Geelong"
-37.882681,144.688598,3030,WOODVILLE CHILD CARE CENTRE,"Woodville Park Drive, Woodville, Hoppers Crossing, Werribee"
-37.648255,145.374869,3775,YARRA GLEN CHILD CARE CENTRE,"Forest Street, Yarra Glen"
-37.815046,145.013161,3121,YARRABERG CHILD CARE & COMMUNITY CENTRE,"4, River Street, Richmond"
-37.212304,145.422793,3714,YEA CHILDRENS CENTRE TAKE A BREAK CHILD CARE,"Goulburn Valley Highway, Yea, Shire of Murrindindi"
